STARLINK-4719           
1 53774U 22111B   26068.86325966  .00001012  00000+0  81658-4 0  9995
2 53774  53.2162 283.2276 0001281  98.5226 261.5912 15.08845552193733
ADRAS-J                 
1 58992U 24034A   26068.91589465  .00004016  00000+0  21471-3 0  9993
2 58992  98.2230  88.3954 0075813  99.4078 261.5731 15.13266815112352
